{
  "type": "FeatureCollection",
  "features": [
    {
      "type": "Feature",
      "properties": {
        "norad_id": 31307,
        "name": "GALAXY 17 (G-17)",
        "group": "intelsat",
        "lat": 2.265867280559943,
        "lon": 149.14154587548444,
        "alt_km": 35785.765965128594,
        "timestamp": "2025-12-02T10:50:46.940986+00:00",
        "meta_object_name": "GALAXY 17 (G-17)",
        "meta_object_id": "2007-016B",
        "meta_epoch": "2025-12-02T03:06:24.357312",
        "meta_mean_motion": 1.00270148,
        "meta_eccentricity": 0.0006122,
        "meta_inclination": 2.4709,
        "meta_ra_of_asc_node": 82.4076,
        "meta_arg_of_pericenter": 155.5773,
        "meta_mean_anomaly": 154.8609,
        "meta_ephemeris_type": 0,
        "meta_classification_type": "U",
        "meta_norad_cat_id": 31307,
        "meta_element_set_no": 999,
        "meta_rev_at_epoch": 6782,
        "meta_bstar": 0,
        "meta_mean_motion_dot": -1.85e-06,
        "meta_mean_motion_ddot": 0,
        "tle_line1": "1 31307U 07016B   25336.12944858 -.00000185  00000+0  00000+0 0  9991",
        "tle_line2": "2 31307   2.4709  82.4076 0006122 155.5773 154.8609  1.00270148 67828"
      },
      "geometry": {
        "type": "Point",
        "coordinates": [
          149.14154587548444,
          2.265867280559943
        ]
      }
    },
    {
      "type": "Feature",
      "properties": {
        "norad_id": 31862,
        "name": "DIRECTV 10",
        "group": "intelsat",
        "lat": 0.0041967366242756645,
        "lon": 131.42896490956127,
        "alt_km": 35785.67674983159,
        "timestamp": "2025-12-02T10:50:46.941005+00:00",
        "meta_object_name": "DIRECTV 10",
        "meta_object_id": "2007-032A",
        "meta_epoch": "2025-12-02T03:01:24.835296",
        "meta_mean_motion": 1.0027088,
        "meta_eccentricity": 2.1e-05,
        "meta_inclination": 0.002,
        "meta_ra_of_asc_node": 102.1876,
        "meta_arg_of_pericenter": 70.1716,
        "meta_mean_anomaly": 201.4374,
        "meta_ephemeris_type": 0,
        "meta_classification_type": "U",
        "meta_norad_cat_id": 31862,
        "meta_element_set_no": 999,
        "meta_rev_at_epoch": 4361,
        "meta_bstar": 0,
        "meta_mean_motion_dot": -8.2e-07,
        "meta_mean_motion_ddot": 0,
        "tle_line1": "1 31862U 07032A   25336.12598189 -.00000082  00000+0  00000+0 0  9993",
        "tle_line2": "2 31862   0.0020 102.1876 0000210  70.1716 201.4374  1.00270880 43615"
      },
      "geometry": {
        "type": "Point",
        "coordinates": [
          131.42896490956127,
          0.0041967366242756645
        ]
      }
    },
    {
      "type": "Feature",
      "properties": {
        "norad_id": 32253,
        "name": "INTELSAT 11 (IS-11)",
        "group": "intelsat",
        "lat": 2.739925456521983,
        "lon": 145.09266166551342,
        "alt_km": 36136.77573463839,
        "timestamp": "2025-12-02T10:50:46.941016+00:00",
        "meta_object_name": "INTELSAT 11 (IS-11)",
        "meta_object_id": "2007-044B",
        "meta_epoch": "2025-12-02T03:05:46.915872",
        "meta_mean_motion": 0.99047526,
        "meta_eccentricity": 0.0009246,
        "meta_inclination": 3.0502,
        "meta_ra_of_asc_node": 81.0954,
        "meta_arg_of_pericenter": 160.2519,
        "meta_mean_anomaly": 148.7621,
        "meta_ephemeris_type": 0,
        "meta_classification_type": "U",
        "meta_norad_cat_id": 32253,
        "meta_element_set_no": 999,
        "meta_rev_at_epoch": 6649,
        "meta_bstar": 0,
        "meta_mean_motion_dot": -1.6e-07,
        "meta_mean_motion_ddot": 0,
        "tle_line1": "1 32253U 07044B   25336.12901523 -.00000016  00000+0  00000+0 0  9998",
        "tle_line2": "2 32253   3.0502  81.0954 0009246 160.2519 148.7621  0.99047526 66495"
      },
      "geometry": {
        "type": "Point",
        "coordinates": [
          145.09266166551342,
          2.739925456521983
        ]
      }
    },
    {
      "type": "Feature",
      "properties": {
        "norad_id": 32388,
        "name": "HORIZONS-2",
        "group": "intelsat",
        "lat": 2.0311261093546547,
        "lon": 160.37593853252358,
        "alt_km": 35789.91599918537,
        "timestamp": "2025-12-02T10:50:46.941028+00:00",
        "meta_object_name": "HORIZONS-2",
        "meta_object_id": "2007-063B",
        "meta_epoch": "2025-12-02T01:26:56.451840",
        "meta_mean_motion": 1.0027259,
        "meta_eccentricity": 0.0004889,
        "meta_inclination": 2.0914,
        "meta_ra_of_asc_node": 83.0787,
        "meta_arg_of_pericenter": 179.4198,
        "meta_mean_anomaly": 116.6182,
        "meta_ephemeris_type": 0,
        "meta_classification_type": "U",
        "meta_norad_cat_id": 32388,
        "meta_element_set_no": 999,
        "meta_rev_at_epoch": 6583,
        "meta_bstar": 0,
        "meta_mean_motion_dot": -2.33e-06,
        "meta_mean_motion_ddot": 0,
        "tle_line1": "1 32388U 07063B   25336.06037560 -.00000233  00000+0  00000+0 0  9993",
        "tle_line2": "2 32388   2.0914  83.0787 0004889 179.4198 116.6182  1.00272590 65836"
      },
      "geometry": {
        "type": "Point",
        "coordinates": [
          160.37593853252358,
          2.0311261093546547
        ]
      }
    },
    {
      "type": "Feature",
      "properties": {
        "norad_id": 32729,
        "name": "DIRECTV 11",
        "group": "intelsat",
        "lat": -0.001753972139811615,
        "lon": 135.0374624277854,
        "alt_km": 35783.04475717631,
        "timestamp": "2025-12-02T10:50:46.941039+00:00",
        "meta_object_name": "DIRECTV 11",
        "meta_object_id": "2008-013A",
        "meta_epoch": "2025-12-02T03:02:24.739008",
        "meta_mean_motion": 1.00274738,
        "meta_eccentricity": 6.26e-05,
        "meta_inclination": 0.0121,
        "meta_ra_of_asc_node": 206.4809,
        "meta_arg_of_pericenter": 320.7543,
        "meta_mean_anomaly": 210.4179,
        "meta_ephemeris_type": 0,
        "meta_classification_type": "U",
        "meta_norad_cat_id": 32729,
        "meta_element_set_no": 999,
        "meta_rev_at_epoch": 4361,
        "meta_bstar": 0,
        "meta_mean_motion_dot": -1.05e-06,
        "meta_mean_motion_ddot": 0,
        "tle_line1": "1 32729U 08013A   25336.12667522 -.00000105  00000+0  00000+0 0  9990",
        "tle_line2": "2 32729   0.0121 206.4809 0000626 320.7543 210.4179  1.00274738 43616"
      },
      "geometry": {
        "type": "Point",
        "coordinates": [
          135.0374624277854,
          -0.001753972139811615
        ]
      }
    },
    {
      "type": "Feature",
      "properties": {
        "norad_id": 32951,
        "name": "GALAXY 18 (G-18)",
        "group": "intelsat",
        "lat": 0.026532059767125492,
        "lon": 111.17225444850098,
        "alt_km": 35797.387117836704,
        "timestamp": "2025-12-02T10:50:46.941051+00:00",
        "meta_object_name": "GALAXY 18 (G-18)",
        "meta_object_id": "2008-024A",
        "meta_epoch": "2025-12-02T02:55:40.385280",
        "meta_mean_motion": 1.00272475,
        "meta_eccentricity": 0.0003391,
        "meta_inclination": 0.0216,
        "meta_ra_of_asc_node": 340.739,
        "meta_arg_of_pericenter": 273.8284,
        "meta_mean_anomaly": 97.5532,
        "meta_ephemeris_type": 0,
        "meta_classification_type": "U",
        "meta_norad_cat_id": 32951,
        "meta_element_set_no": 999,
        "meta_rev_at_epoch": 4387,
        "meta_bstar": 0,
        "meta_mean_motion_dot": 0,
        "meta_mean_motion_ddot": 0,
        "tle_line1": "1 32951U 08024A   25336.12199520  .00000000  00000+0  00000+0 0  9990",
        "tle_line2": "2 32951   0.0216 340.7390 0003391 273.8284  97.5532  1.00272475 43878"
      },
      "geometry": {
        "type": "Point",
        "coordinates": [
          111.17225444850098,
          0.026532059767125492
        ]
      }
    },
    {
      "type": "Feature",
      "properties": {
        "norad_id": 33153,
        "name": "INTELSAT 25 (IS-25)",
        "group": "intelsat",
        "lat": 1.882932704981549,
        "lon": -157.29658224497518,
        "alt_km": 35773.30111896262,
        "timestamp": "2025-12-02T10:50:46.941063+00:00",
        "meta_object_name": "INTELSAT 25 (IS-25)",
        "meta_object_id": "2008-034A",
        "meta_epoch": "2025-12-02T03:21:43.154784",
        "meta_mean_motion": 1.00271777,
        "meta_eccentricity": 0.0005269,
        "meta_inclination": 2.198,
        "meta_ra_of_asc_node": 82.7686,
        "meta_arg_of_pericenter": 175.7832,
        "meta_mean_anomaly": 191.6351,
        "meta_ephemeris_type": 0,
        "meta_classification_type": "U",
        "meta_norad_cat_id": 33153,
        "meta_element_set_no": 999,
        "meta_rev_at_epoch": 6372,
        "meta_bstar": 0,
        "meta_mean_motion_dot": -2.03e-06,
        "meta_mean_motion_ddot": 0,
        "tle_line1": "1 33153U 08034A   25336.14008281 -.00000203  00000+0  00000+0 0  9997",
        "tle_line2": "2 33153   2.1980  82.7686 0005269 175.7832 191.6351  1.00271777 63725"
      },
      "geometry": {
        "type": "Point",
        "coordinates": [
          -157.29658224497518,
          1.882932704981549
        ]
      }
    }
  ]
}